ONEWEB-0199             
1 48234U 21031AA  24153.53551612  .00000087  00000+0  19947-3 0  9998
2 48234  87.8967  78.0492 0001970  76.0419 284.0930 13.14501289150301
ONEWEB-0203             
1 48235U 21031AB  24153.52599721 -.00000078  00000+0 -24374-3 0  9993
2 48235  87.8966  78.0524 0002433  87.8815 272.2593 13.14501951150313
ONEWEB-0197             
1 48236U 21031AC  24153.50141864 -.00000133  00000+0 -39416-3 0  9998
2 48236  87.8971  78.0657 0001640  80.9776 279.1539 13.14501722150228
ONEWEB-0194             
1 48237U 21031AD  24153.55613435  .00000143  00000+0  35159-3 0  9991
2 48237  87.8970  78.0478 0002164  86.5768 273.5609 13.14501312150405
ONEWEB-0193             
1 48238U 21031AE  24153.34363152 -.00000013  00000+0 -68410-4 0  9992
2 48238  87.8970  78.0983 0002160  78.9866 281.1507 13.14501229150327
ONEWEB-0191             
1 48239U 21031AF  24153.50696902 -.00000166  00000+0 -48176-3 0  9998
2 48239  87.8967  78.0496 0002114  79.0409 281.0958 13.14501293150204
ONEWEB-0195             
1 48240U 21031AG  24153.48397527  .00000169  00000+0  42146-3 0  9990
2 48240  87.8968  78.0537 0002300  70.1024 290.0354 13.14501557150185
ONEWEB-0201             
1 48241U 21031AH  24153.54899101  .00000228  00000+0  58089-3 0  9992
2 48241  87.8970  78.0748 0002090  76.1003 284.0359 13.14501033150426
